start=new Date('2021-09-11T00:00:00.000Z').valueOf();
sats=[{"RA_OF_ASC_NODE":"182.8566","DECAY_DATE":null,"MEAN_MOTION_DOT":"0.00001652","MEAN_MOTION_DDOT":"0.0000000000000","OBJECT_TYPE":"PAYLOAD","EPHEMERIS_TYPE":"0","COUNTRY_CODE":"US","OBJECT_NAME":"STARLINK-1617","GP_ID":"184475091","CLASSIFICATION_TYPE":"U","ELEMENT_SET_NO":"999","PERIOD":"95.592","SITE":"AFETR","MEAN_MOTION":"15.06401660","FILE":"3112758","SEMIMAJOR_AXIS":"6925.343","REV_AT_EPOCH":"5699","APOAPSIS":"548.552","MEAN_ELEMENT_THEORY":"SGP4","MEAN_ANOMALY":"301.1360","CENTER_NAME":"EARTH","NORAD_CAT_ID":"46350","TLE_LINE2":"2 46350  53.0536 182.8566 0001940  58.9819 301.1360 15.06401660 56994","PERIAPSIS":"545.865","EPOCH":"2021-09-10T19:11:08.960064","TIME_SYSTEM":"UTC","REF_FRAME":"TEME","OBJECT_ID":"2020-062AB","LAUNCH_DATE":"2020-09-03","TLE_LINE1":"1 46350U 20062AB  21253.79940926  .00001652  00000-0  12975-3 0  9998","ECCENTRICITY":"0.00019400","ARG_OF_PERICENTER":"58.9819","INCLINATION":"53.0536","BSTAR":"0.00012975000000","RCS_SIZE":"LARGE"},{"COUNTRY_CODE":"US","OBJECT_NAME":"STARLINK-1646","CLASSIFICATION_TYPE":"U","GP_ID":"184474842","ELEMENT_SET_NO":"999","OBJECT_TYPE":"PAYLOAD","EPHEMERIS_TYPE":"0","MEAN_MOTION_DOT":"-0.00000215","MEAN_MOTION_DDOT":"0.0000000000000","RA_OF_ASC_NODE":"163.1418","DECAY_DATE":null,"SEMIMAJOR_AXIS":"6925.381","PERIOD":"95.593","SITE":"AFETR","MEAN_MOTION":"15.06389314","FILE":"3112758","EPOCH":"2021-09-10T17:43:35.402880","TIME_SYSTEM":"UTC","REF_FRAME":"TEME","MEAN_ANOMALY":"293.6400","CENTER_NAME":"EARTH","NORAD_CAT_ID":"46351","TLE_LINE2":"2 46351  53.0528 163.1418 0002053  66.4804 293.6400 15.06389314 57260","PERIAPSIS":"545.825","APOAPSIS":"548.668","MEAN_ELEMENT_THEORY":"SGP4","REV_AT_EPOCH":"5726","RCS_SIZE":"LARGE","ECCENTRICITY":"0.00020530","INCLINATION":"53.0528","ARG_OF_PERICENTER":"66.4804","BSTAR":"0.00000450340000","TLE_LINE1":"1 46351U 20062AC  21253.73860420 -.00000215  00000-0  45034-5 0  9992","OBJECT_ID":"2020-062AC","LAUNCH_DATE":"2020-09-03"},{"SITE":"AFETR","PERIOD":"95.592","FILE":"3112758","MEAN_MOTION":"15.06398812","SEMIMAJOR_AXIS":"6925.352","MEAN_MOTION_DOT":"0.00001591","MEAN_MOTION_DDOT":"0.0000000000000","RA_OF_ASC_NODE":"162.3220","DECAY_DATE":null,"OBJECT_NAME":"STARLINK-1653","COUNTRY_CODE":"US","ELEMENT_SET_NO":"999","CLASSIFICATION_TYPE":"U","GP_ID":"184473590","OBJECT_TYPE":"PAYLOAD","EPHEMERIS_TYPE":"0","TLE_LINE1":"1 46352U 20062AD  21253.91920072  .00001591  00000-0  12570-3 0  9997","OBJECT_ID":"2020-062AD","LAUNCH_DATE":"2020-09-03","RCS_SIZE":"LARGE","INCLINATION":"53.0542","ARG_OF_PERICENTER":"61.3091","ECCENTRICITY":"0.00018560","BSTAR":"0.00012570000000","APOAPSIS":"548.503","MEAN_ELEMENT_THEORY":"SGP4","REV_AT_EPOCH":"5729","EPOCH":"2021-09-10T22:03:38.942208","REF_FRAME":"TEME","TIME_SYSTEM":"UTC","MEAN_ANOMALY":"298.8085","TLE_LINE2":"2 46352  53.0542 162.3220 0001856  61.3091 298.8085 15.06398812 57293","PERIAPSIS":"545.932","NORAD_CAT_ID":"46352","CENTER_NAME":"EARTH"},{"SEMIMAJOR_AXIS":"6925.489","FILE":"3112434","MEAN_MOTION":"15.06354053","SITE":"AFETR","PERIOD":"95.595","ELEMENT_SET_NO":"999","CLASSIFICATION_TYPE":"U","GP_ID":"184445494","OBJECT_NAME":"STARLINK-1656","COUNTRY_CODE":"US","OBJECT_TYPE":"PAYLOAD","EPHEMERIS_TYPE":"0","MEAN_MOTION_DDOT":"0.0000000000000","MEAN_MOTION_DOT":"0.00011159","DECAY_DATE":null,"RA_OF_ASC_NODE":"185.3131","RCS_SIZE":"LARGE","BSTAR":"0.00076781000000","INCLINATION":"53.0544","ARG_OF_PERICENTER":"61.0404","ECCENTRICITY":"0.00023530","TLE_LINE1":"1 46353U 20062AE  21253.25390235  .00011159  00000-0  76781-3 0  9992","OBJECT_ID":"2020-062AE","LAUNCH_DATE":"2020-09-03","REF_FRAME":"TEME","TIME_SYSTEM":"UTC","EPOCH":"2021-09-10T06:05:37.163040","NORAD_CAT_ID":"46353","TLE_LINE2":"2 46353  53.0544 185.3131 0002353  61.0404 299.0820 15.06354053 57086","PERIAPSIS":"545.725","CENTER_NAME":"EARTH","MEAN_ANOMALY":"299.0820","APOAPSIS":"548.984","MEAN_ELEMENT_THEORY":"SGP4","REV_AT_EPOCH":"5708"},{"ARG_OF_PERICENTER":"65.3370","INCLINATION":"53.0535","ECCENTRICITY":"0.00019110","BSTAR":"0.00002225800000","RCS_SIZE":"LARGE","OBJECT_ID":"2020-062AF","LAUNCH_DATE":"2020-09-03","TLE_LINE1":"1 46354U 20062AF  21253.83995603  .00000050  00000-0  22258-4 0  9996","MEAN_ANOMALY":"294.7818","PERIAPSIS":"545.882","TLE_LINE2":"2 46354  53.0535 182.6789 0001911  65.3370 294.7818 15.06402683 56995","NORAD_CAT_ID":"46354","CENTER_NAME":"EARTH","EPOCH":"2021-09-10T20:09:32.200992","REF_FRAME":"TEME","TIME_SYSTEM":"UTC","REV_AT_EPOCH":"5699","MEAN_ELEMENT_THEORY":"SGP4","APOAPSIS":"548.529","SEMIMAJOR_AXIS":"6925.340","SITE":"AFETR","PERIOD":"95.592","FILE":"3112758","MEAN_MOTION":"15.06402683","OBJECT_TYPE":"PAYLOAD","EPHEMERIS_TYPE":"0","OBJECT_NAME":"STARLINK-1657","COUNTRY_CODE":"US","ELEMENT_SET_NO":"999","GP_ID":"184474592","CLASSIFICATION_TYPE":"U","RA_OF_ASC_NODE":"182.6789","DECAY_DATE":null,"MEAN_MOTION_DOT":"0.00000050","MEAN_MOTION_DDOT":"0.0000000000000"},{"ARG_OF_PERICENTER":"68.5235","INCLINATION":"53.0544","ECCENTRICITY":"0.00016880","BSTAR":"0.00008905200000","RCS_SIZE":"LARGE","LAUNCH_DATE":"2020-09-03","OBJECT_ID":"2020-062AG","TLE_LINE1":"1 46355U 20062AG  21253.88050280  .00001045  00000-0  89052-4 0  9995","MEAN_ANOMALY":"291.5934","TLE_LINE2":"2 46355  53.0544 182.4976 0001688  68.5235 291.5934 15.06397992 57001","PERIAPSIS":"546.051","NORAD_CAT_ID":"46355","CENTER_NAME":"EARTH","EPOCH":"2021-09-10T21:07:55.441920","REF_FRAME":"TEME","TIME_SYSTEM":"UTC","REV_AT_EPOCH":"5700","APOAPSIS":"548.389","MEAN_ELEMENT_THEORY":"SGP4","SEMIMAJOR_AXIS":"6925.355","SITE":"AFETR","PERIOD":"95.592","MEAN_MOTION":"15.06397992","FILE":"3112758","OBJECT_TYPE":"PAYLOAD","EPHEMERIS_TYPE":"0","OBJECT_NAME":"STARLINK-1661","COUNTRY_CODE":"US","ELEMENT_SET_NO":"999","GP_ID":"184475342","CLASSIFICATION_TYPE":"U","RA_OF_ASC_NODE":"182.4976","DECAY_DATE":null,"MEAN_MOTION_DOT":"0.00001045","MEAN_MOTION_DDOT":"0.0000000000000"},{"OBJECT_ID":"2020-062AH","LAUNCH_DATE":"2020-09-03","TLE_LINE1":"1 46356U 20062AH  21253.69251355  .00001274  00000-0  10441-3 0  9990","BSTAR":"0.00010441000000","ECCENTRICITY":"0.00019390","ARG_OF_PERICENTER":"56.5669","INCLINATION":"53.0550","RCS_SIZE":"LARGE","REV_AT_EPOCH":"5697","MEAN_ELEMENT_THEORY":"SGP4","APOAPSIS":"548.552","CENTER_NAME":"EARTH","PERIAPSIS":"545.867","TLE_LINE2":"2 46356  53.0550 183.3540 0001939  56.5669 303.5505 15.06401302 56977","NORAD_CAT_ID":"46356","MEAN_ANOMALY":"303.5505","TIME_SYSTEM":"UTC","REF_FRAME":"TEME","EPOCH":"2021-09-10T16:37:13.170720","FILE":"3112758","MEAN_MOTION":"15.06401302","PERIOD":"95.592","SITE":"AFETR","SEMIMAJOR_AXIS":"6925.345","DECAY_DATE":null,"RA_OF_ASC_NODE":"183.3540","MEAN_MOTION_DDOT":"0.0000000000000","MEAN_MOTION_DOT":"0.00001274","OBJECT_TYPE":"PAYLOAD","EPHEMERIS_TYPE":"0","GP_ID":"184474090","CLASSIFICATION_TYPE":"U","ELEMENT_SET_NO":"999","COUNTRY_CODE":"US","OBJECT_NAME":"STARLINK-1665"},{"SITE":"AFETR","PERIOD":"95.592","MEAN_MOTION":"15.06400724","FILE":"3112758","SEMIMAJOR_AXIS":"6925.346","MEAN_MOTION_DOT":"0.00000567","MEAN_MOTION_DDOT":"0.0000000000000","RA_OF_ASC_NODE":"162.4643","DECAY_DATE":null,"OBJECT_NAME":"STARLINK-1666","COUNTRY_CODE":"US","ELEMENT_SET_NO":"999","GP_ID":"184474340","CLASSIFICATION_TYPE":"U","EPHEMERIS_TYPE":"0","OBJECT_TYPE":"PAYLOAD","TLE_LINE1":"1 46357U 20062AJ  21253.88971389  .00000567  00000-0  56937-4 0  9993","OBJECT_ID":"2020-062AJ","LAUNCH_DATE":"2020-09-03","RCS_SIZE":"LARGE","INCLINATION":"53.0548","ARG_OF_PERICENTER":"68.6308","ECCENTRICITY":"0.00018390","BSTAR":"0.00005693700000","MEAN_ELEMENT_THEORY":"SGP4","APOAPSIS":"548.485","REV_AT_EPOCH":"5728","EPOCH":"2021-09-10T21:21:11.280096","REF_FRAME":"TEME","TIME_SYSTEM":"UTC","MEAN_ANOMALY":"291.4877","PERIAPSIS":"545.938","TLE_LINE2":"2 46357  53.0548 162.4643 0001839  68.6308 291.4877 15.06400724 57289","NORAD_CAT_ID":"46357","CENTER_NAME":"EARTH"},{"ELEMENT_SET_NO":"999","GP_ID":"184446430","CLASSIFICATION_TYPE":"U","OBJECT_NAME":"STARLINK-1690","COUNTRY_CODE":"US","OBJECT_TYPE":"PAYLOAD","EPHEMERIS_TYPE":"0","MEAN_MOTION_DDOT":"0.0000000000000","MEAN_MOTION_DOT":"0.00001443","DECAY_DATE":null,"RA_OF_ASC_NODE":"184.9380","SEMIMAJOR_AXIS":"6925.347","FILE":"3112489","MEAN_MOTION":"15.06400637","SITE":"AFETR","PERIOD":"95.592","REF_FRAME":"TEME","TIME_SYSTEM":"UTC","EPOCH":"2021-09-10T08:07:40.886688","TLE_LINE2":"2 46358  53.0532 184.9380 0001816  62.1245 297.9928 15.06400637 57106","NORAD_CAT_ID":"46358","PERIAPSIS":"545.954","CENTER_NAME":"EARTH","MEAN_ANOMALY":"297.9928","MEAN_ELEMENT_THEORY":"SGP4","APOAPSIS":"548.469","REV_AT_EPOCH":"5710","RCS_SIZE":"LARGE","BSTAR":"0.00011579000000","ARG_OF_PERICENTER":"62.1245","INCLINATION":"53.0532","ECCENTRICITY":"0.00018160","TLE_LINE1":"1 46358U 20062AK  21253.33866767  .00001443  00000-0  11579-3 0  9993","OBJECT_ID":"2020-062AK","LAUNCH_DATE":"2020-09-03"},{"OBJECT_ID":"2020-062AL","LAUNCH_DATE":"2020-09-03","TLE_LINE1":"1 46359U 20062AL  21253.91598124 -.00000292  00000-0 -68203-6 0  9999","BSTAR":"-0.00000068203000","ECCENTRICITY":"0.00019930","ARG_OF_PERICENTER":"75.3187","INCLINATION":"53.0544","RCS_SIZE":"LARGE","REV_AT_EPOCH":"5763","APOAPSIS":"548.602","MEAN_ELEMENT_THEORY":"SGP4","CENTER_NAME":"EARTH","NORAD_CAT_ID":"46359","TLE_LINE2":"2 46359  53.0544 137.3442 0001993  75.3187 284.8022 15.06397369 57633","PERIAPSIS":"545.841","MEAN_ANOMALY":"284.8022","TIME_SYSTEM":"UTC","REF_FRAME":"TEME","EPOCH":"2021-09-10T21:59:00.779136","FILE":"3112758","MEAN_MOTION":"15.06397369","PERIOD":"95.592","SITE":"AFETR","SEMIMAJOR_AXIS":"6925.357","DECAY_DATE":null,"RA_OF_ASC_NODE":"137.3442","MEAN_MOTION_DDOT":"0.0000000000000","MEAN_MOTION_DOT":"-0.00000292","OBJECT_TYPE":"PAYLOAD","EPHEMERIS_TYPE":"0","GP_ID":"184474843","CLASSIFICATION_TYPE":"U","ELEMENT_SET_NO":"999","COUNTRY_CODE":"US","OBJECT_NAME":"STARLINK-1707"}];
